{"type": "FeatureCollection", "features": [ {"type": "Feature", "properties": {"norad_id": 31430, "name": "FENGYUN 1C DEB", "group": "fengyun-1c-debris", "lat": 17.463174899865137, "lon": 39.5105482091369, "alt_km": 793.5042745695646, "timestamp": "2025-12-05T05:43:15.391842+00:00", "meta": {"OBJECT_NAME": "FENGYUN 1C DEB", "OBJECT_ID": "1999-025BTS", "EPOCH": "2025-12-04T11:10:10.439040", "MEAN_MOTION": 14.2554831, "ECCENTRICITY": 0.002734, "INCLINATION": 98.745, "RA_OF_ASC_NODE": 41.5154, "ARG_OF_PERICENTER": 66.6569, "MEAN_ANOMALY": 306.7065, "EPHEMERIS_TYPE": 0, "CLASSIFICATION_TYPE": "U", "NORAD_CAT_ID": 31430, "ELEMENT_SET_NO": 999, "REV_AT_EPOCH": 96000, "BSTAR": 0.0021134, "MEAN_MOTION_DOT": 4.977e-05, "MEAN_MOTION_DDOT": 0}, "tle": {"line1": "1 31430U 99025BTS 25338.46539860  .00004977  00000+0  21134-2 0  9997", "line2": "2 31430  98.7450  41.5154 0027340  66.6569 306.7065 14.25548310960005"}}, "geometry": {"type": "Point", "coordinates": [39.5105482091369, 17.463174899865137]}}, {"type": "Feature", "properties": {"norad_id": 31431, "name": "FENGYUN 1C DEB", "group": "fengyun-1c-debris", "lat": 21.544890900152915, "lon": 51.273385942517, "alt_km": 810.4531488726107, "timestamp": "2025-12-05T05:43:15.391852+00:00", "meta": {"OBJECT_NAME": "FENGYUN 1C DEB", "OBJECT_ID": "1999-025BTT", "EPOCH": "2025-12-03T03:20:44.429568", "MEAN_MOTION": 14.03009216, "ECCENTRICITY": 0.01328889, "INCLINATION": 98.5398, "RA_OF_ASC_NODE": 225.9023, "ARG_OF_PERICENTER": 122.3237, "MEAN_ANOMALY": 239.088, "EPHEMERIS_TYPE": 0, "CLASSIFICATION_TYPE": "U", "NORAD_CAT_ID": 31431, "ELEMENT_SET_NO": 999, "REV_AT_EPOCH": 94397, "BSTAR": 0.0016680397, "MEAN_MOTION_DOT": 2.762e-05, "MEAN_MOTION_DDOT": 0}, "tle": {"line1": "1 31431U 99025BTT 25337.13940312  .00002762  00000+0  16680-2 0  9999", "line2": "2 31431  98.5398 225.9023 0132888 122.3237 239.0880 14.03009216943977"}}, "geometry": {"type": "Point", "coordinates": [51.273385942517, 21.544890900152915]}}, {"type": "Feature", "properties": {"norad_id": 31433, "name": "FENGYUN 1C DEB", "group": "fengyun-1c-debris", "lat": -23.13695670731237, "lon": 59.38862948295464, "alt_km": 876.4981567118684, "timestamp": "2025-12-05T05:43:15.391863+00:00", "meta": {"OBJECT_NAME": "FENGYUN 1C DEB", "OBJECT_ID": "1999-025BTV", "EPOCH": "2025-12-04T10:31:43.197024", "MEAN_MOTION": 14.25277842, "ECCENTRICITY": 0.010012, "INCLINATION": 98.4112, "RA_OF_ASC_NODE": 242.2466, "ARG_OF_PERICENTER": 53.2063, "MEAN_ANOMALY": 8.7125, "EPHEMERIS_TYPE": 0, "CLASSIFICATION_TYPE": "U", "NORAD_CAT_ID": 31433, "ELEMENT_SET_NO": 999, "REV_AT_EPOCH": 95434, "BSTAR": 0.0058498, "MEAN_MOTION_DOT": 0.00014493, "MEAN_MOTION_DDOT": 0}, "tle": {"line1": "1 31433U 99025BTV 25338.43869441  .00014493  00000+0  58498-2 0  9995", "line2": "2 31433  98.4112 242.2466 0100120  53.2063   8.7125 14.25277842954340"}}, "geometry": {"type": "Point", "coordinates": [59.38862948295464, -23.13695670731237]}}, {"type": "Feature", "properties": {"norad_id": 31435, "name": "FENGYUN 1C DEB", "group": "fengyun-1c-debris", "lat": -62.153353398446754, "lon": -47.05730742354166, "alt_km": 641.2383985815559, "timestamp": "2025-12-05T05:43:15.391873+00:00", "meta": {"OBJECT_NAME": "FENGYUN 1C DEB", "OBJECT_ID": "1999-025BTX", "EPOCH": "2025-12-03T17:54:29.292768", "MEAN_MOTION": 14.53396512, "ECCENTRICITY": 0.01486288, "INCLINATION": 99.0374, "RA_OF_ASC_NODE": 148.8682, "ARG_OF_PERICENTER": 207.1752, "MEAN_ANOMALY": 152.1608, "EPHEMERIS_TYPE": 0, "CLASSIFICATION_TYPE": "U", "NORAD_CAT_ID": 31435, "ELEMENT_SET_NO": 999, "REV_AT_EPOCH": 98242, "BSTAR": 0.00043649672, "MEAN_MOTION_DOT": 2.041e-05, "MEAN_MOTION_DDOT": 0}, "tle": {"line1": "1 31435U 99025BTX 25337.74617237  .00002041  00000+0  43650-3 0  9995", "line2": "2 31435  99.0374 148.8682 0148628 207.1752 152.1608 14.53396512982427"}}, "geometry": {"type": "Point", "coordinates": [-47.05730742354166, -62.153353398446754]}}, {"type": "Feature", "properties": {"norad_id": 31436, "name": "FENGYUN 1C DEB", "group": "fengyun-1c-debris", "lat": -25.75483374083113, "lon": 6.895850358068301, "alt_km": 580.0928243789185, "timestamp": "2025-12-05T05:43:15.391883+00:00", "meta": {"OBJECT_NAME": "FENGYUN 1C DEB", "OBJECT_ID": "1999-025BTY", "EPOCH": "2025-12-04T12:58:15.356064", "MEAN_MOTION": 14.9239624, "ECCENTRICITY": 0.0045621, "INCLINATION": 98.8798, "RA_OF_ASC_NODE": 190.4353, "ARG_OF_PERICENTER": 269.1396, "MEAN_ANOMALY": 149.6903, "EPHEMERIS_TYPE": 0, "CLASSIFICATION_TYPE": "U", "NORAD_CAT_ID": 31436, "ELEMENT_SET_NO": 999, "REV_AT_EPOCH": 96754, "BSTAR": 0.010966, "MEAN_MOTION_DOT": 0.00116284, "MEAN_MOTION_DDOT": 0}, "tle": {"line1": "1 31436U 99025BTY 25338.54045551  .00116284  00000+0  10966-1 0  9996", "line2": "2 31436  98.8798 190.4353 0045621 269.1396 149.6903 14.92396240967540"}}, "geometry": {"type": "Point", "coordinates": [6.895850358068301, -25.75483374083113]}}, {"type": "Feature", "properties": {"norad_id": 31437, "name": "FENGYUN 1C DEB", "group": "fengyun-1c-debris", "lat": 9.647060393806399, "lon": 58.49341001345508, "alt_km": 754.4426598514565, "timestamp": "2025-12-05T05:43:15.391893+00:00", "meta": {"OBJECT_NAME": "FENGYUN 1C DEB", "OBJECT_ID": "1999-025BTZ", "EPOCH": "2025-12-03T03:43:35.676192", "MEAN_MOTION": 14.42268403, "ECCENTRICITY": 0.00147172, "INCLINATION": 98.8658, "RA_OF_ASC_NODE": 57.8503, "ARG_OF_PERICENTER": 275.1536, "MEAN_ANOMALY": 84.7972, "EPHEMERIS_TYPE": 0, "CLASSIFICATION_TYPE": "U", "NORAD_CAT_ID": 31437, "ELEMENT_SET_NO": 999, "REV_AT_EPOCH": 96372, "BSTAR": 0.0031577834, "MEAN_MOTION_DOT": 0.00010397, "MEAN_MOTION_DDOT": 0}, "tle": {"line1": "1 31437U 99025BTZ 25337.15527403  .00010397  00000+0  31578-2 0  9995", "line2": "2 31437  98.8658  57.8503 0014717 275.1536  84.7972 14.42268403963729"}}, "geometry": {"type": "Point", "coordinates": [58.49341001345508, 9.647060393806399]}}, {"type": "Feature", "properties": {"norad_id": 31439, "name": "FENGYUN 1C DEB", "group": "fengyun-1c-debris", "lat": -19.057609926224576, "lon": -11.387400762104148, "alt_km": 1007.2996321642231, "timestamp": "2025-12-05T05:43:15.391904+00:00", "meta": {"OBJECT_NAME": "FENGYUN 1C DEB", "OBJECT_ID": "1999-025BUB", "EPOCH": "2025-12-03T18:31:58.136160", "MEAN_MOTION": 13.95552286, "ECCENTRICITY": 0.01375894, "INCLINATION": 98.9169, "RA_OF_ASC_NODE": 344.0849, "ARG_OF_PERICENTER": 186.3936, "MEAN_ANOMALY": 351.8228, "EPHEMERIS_TYPE": 0, "CLASSIFICATION_TYPE": "U", "NORAD_CAT_ID": 31439, "ELEMENT_SET_NO": 999, "REV_AT_EPOCH": 63107, "BSTAR": 0.0011086732, "MEAN_MOTION_DOT": 1.589e-05, "MEAN_MOTION_DDOT": 0}, "tle": {"line1": "1 31439U 99025BUB 25337.77220065  .00001589  00000+0  11087-2 0  9995", "line2": "2 31439  98.9169 344.0849 0137589 186.3936 351.8228 13.95552286631077"}}, "geometry": {"type": "Point", "coordinates": [-11.387400762104148, -19.057609926224576]}}, {"type": "Feature", "properties": {"norad_id": 31440, "name": "FENGYUN 1C DEB", "group": "fengyun-1c-debris", "lat": -70.99907075913178, "lon": -139.43795892613858, "alt_km": 787.3185717819206, "timestamp": "2025-12-05T05:43:15.391914+00:00", "meta": {"OBJECT_NAME": "FENGYUN 1C DEB", "OBJECT_ID": "1999-025BUC", "EPOCH": "2025-12-02T04:39:51.729408", "MEAN_MOTION": 14.36510307, "ECCENTRICITY": 0.00367739, "INCLINATION": 98.7469, "RA_OF_ASC_NODE": 64.0297, "ARG_OF_PERICENTER": 14.8999, "MEAN_ANOMALY": 345.3261, "EPHEMERIS_TYPE": 0, "CLASSIFICATION_TYPE": "U", "NORAD_CAT_ID": 31440, "ELEMENT_SET_NO": 999, "REV_AT_EPOCH": 96174, "BSTAR": 0.0021635441, "MEAN_MOTION_DOT": 6.36e-05, "MEAN_MOTION_DDOT": 0}, "tle": {"line1": "1 31440U 99025BUC 25336.19434872  .00006360  00000+0  21635-2 0  9997", "line2": "2 31440  98.7469  64.0297 0036773  14.8999 345.3261 14.36510307961742"}}, "geometry": {"type": "Point", "coordinates": [-139.43795892613858, -70.99907075913178]}}, {"type": "Feature", "properties": {"norad_id": 31441, "name": "FENGYUN 1C DEB", "group": "fengyun-1c-debris", "lat": -59.24032083534715, "lon": -143.06389877526442, "alt_km": 615.5839849507884, "timestamp": "2025-12-05T05:43:15.391924+00:00", "meta": {"OBJECT_NAME": "FENGYUN 1C DEB", "OBJECT_ID": "1999-025BUD", "EPOCH": "2025-12-03T01:51:36.412992", "MEAN_MOTION": 14.73966305, "ECCENTRICITY": 0.01063296, "INCLINATION": 99.3135, "RA_OF_ASC_NODE": 198.4503, "ARG_OF_PERICENTER": 4.9284, "MEAN_ANOMALY": 355.2941, "EPHEMERIS_TYPE": 0, "CLASSIFICATION_TYPE": "U", "NORAD_CAT_ID": 31441, "ELEMENT_SET_NO": 999, "REV_AT_EPOCH": 63948, "BSTAR": 0.0068089716, "MEAN_MOTION_DOT": 0.00049217, "MEAN_MOTION_DDOT": 0}, "tle": {"line1": "1 31441U 99025BUD 25337.07750478  .00049217  00000+0  68090-2 0  9993", "line2": "2 31441  99.3135 198.4503 0106329   4.9284 355.2941 14.73966305639486"}}, "geometry": {"type": "Point", "coordinates": [-143.06389877526442, -59.24032083534715]}}, {"type": "Feature", "properties": {"norad_id": 31442, "name": "FENGYUN 1C DEB", "group": "fengyun-1c-debris", "lat": -43.71545688835256, "lon": 73.57076096850066, "alt_km": 774.2396834710917, "timestamp": "2025-12-05T05:43:15.391934+00:00", "meta": {"OBJECT_NAME": "FENGYUN 1C DEB", "OBJECT_ID": "1999-025BUE", "EPOCH": "2025-12-04T11:30:13.942656", "MEAN_MOTION": 14.33904779, "ECCENTRICITY": 0.0079549, "INCLINATION": 98.5313, "RA_OF_ASC_NODE": 64.5704, "ARG_OF_PERICENTER": 37.2094, "MEAN_ANOMALY": 323.4567, "EPHEMERIS_TYPE": 0, "CLASSIFICATION_TYPE": "U", "NORAD_CAT_ID": 31442, "ELEMENT_SET_NO": 999, "REV_AT_EPOCH": 97242, "BSTAR": 0.00067549, "MEAN_MOTION_DOT": 1.907e-05, "MEAN_MOTION_DDOT": 0}, "tle": {"line1": "1 31442U 99025BUE 25338.47932804  .00001907  00000+0  67549-3 0  9997", "line2": "2 31442  98.5313  64.5704 0079549  37.2094 323.4567 14.33904779972421"}}, "geometry": {"type": "Point", "coordinates": [73.57076096850066, -43.71545688835256]}}]}